[
    {
        "Altitude(m)": 707046.8152715486,
        "Argument of Periapsis(deg)": 0.0034170363559881197,
        "Eccentricity": 0.0,
        "Inclination(deg)": 45.0,
        "Latitude(deg)": 43.984150100790416,
        "Longitude(deg)": -33.94463197241023,
        "Mean Anomaly(deg)": -258.3582350057558,
        "RAAN(deg)": 319.9967744175625,
        "Satellite Name": "Constellation 1 1414",
        "Satellite Number": 1414,
        "Semi-Major Axis(m)": 7083131.272910544,
        "Time(s)": 57
    },
    {
        "Altitude(m)": 707044.1099376036,
        "Argument of Periapsis(deg)": 0.003476984362233526,
        "Eccentricity": 0.0,
        "Inclination(deg)": 45.0,
        "Latitude(deg)": 43.97207092328785,
        "Longitude(deg)": -33.86623753310885,
        "Mean Anomaly(deg)": -258.2975338655059,
        "RAAN(deg)": 319.996717828397,
        "Satellite Name": "Constellation 1 1414",
        "Satellite Number": 1414,
        "Semi-Major Axis(m)": 7083131.272910544,
        "Time(s)": 58
    },
    {
        "Altitude(m)": 707041.3915278141,
        "Argument of Periapsis(deg)": 0.003536932368478932,
        "Eccentricity": 0.0,
        "Inclination(deg)": 45.0,
        "Latitude(deg)": 43.95993219864282,
        "Longitude(deg)": -33.78787675797258,
        "Mean Anomaly(deg)": -258.23683272525597,
        "RAAN(deg)": 319.9966612392314,
        "Satellite Name": "Constellation 1 1414",
        "Satellite Number": 1414,
        "Semi-Major Axis(m)": 7083131.272910544,
        "Time(s)": 59
    },
    {
        "Altitude(m)": 707038.6600582232,
        "Argument of Periapsis(deg)": 0.003596880374724337,
        "Eccentricity": 0.0,
        "Inclination(deg)": 45.0,
        "Latitude(deg)": 43.94773397584349,
        "Longitude(deg)": -33.70954944744828,
        "Mean Anomaly(deg)": -258.17613158500603,
        "RAAN(deg)": 319.9966046500659,
        "Satellite Name": "Constellation 1 1414",
        "Satellite Number": 1414,
        "Semi-Major Axis(m)": 7083131.272910544,
        "Time(s)": 60
    },
    {
        "Altitude(m)": 707035.9155449455,
        "Argument of Periapsis(deg)": 0.0036568283809697427,
        "Eccentricity": 0.0,
        "Inclination(deg)": 45.0,
        "Latitude(deg)": 43.93547630406676,
        "Longitude(deg)": -33.631255905755076,
        "Mean Anomaly(deg)": -258.11543044475616,
        "RAAN(deg)": 319.99654806090024,
        "Satellite Name": "Constellation 1 1414",
        "Satellite Number": 1414,
        "Semi-Major Axis(m)": 7083131.272910544,
        "Time(s)": 61
    },
    {
        "Altitude(m)": 707033.1580041824,
        "Argument of Periapsis(deg)": 0.003716776387215149,
        "Eccentricity": 0.0,
        "Inclination(deg)": 45.0,
        "Latitude(deg)": 43.92315923267805,
        "Longitude(deg)": -33.55299626849538,
        "Mean Anomaly(deg)": -258.0547293045063,
        "RAAN(deg)": 319.99649147173466,
        "Satellite Name": "Constellation 1 1414",
        "Satellite Number": 1414,
        "Semi-Major Axis(m)": 7083131.272910544,
        "Time(s)": 62
    },
    {
        "Altitude(m)": 707030.3874522111,
        "Argument of Periapsis(deg)": 0.003776724393460554,
        "Eccentricity": 0.0,
        "Inclination(deg)": 45.0,
        "Latitude(deg)": 43.91078281123051,
        "Longitude(deg)": -33.47477067075126,
        "Mean Anomaly(deg)": -257.9940281642564,
        "RAAN(deg)": 319.99643488256913,
        "Satellite Name": "Constellation 1 1414",
        "Satellite Number": 1414,
        "Semi-Major Axis(m)": 7083131.272910544,
        "Time(s)": 63
    },
    {
        "Altitude(m)": 707027.6039053807,
        "Argument of Periapsis(deg)": 0.003836672399705959,
        "Eccentricity": 0.0,
        "Inclination(deg)": 45.0,
        "Latitude(deg)": 43.8983470894639,
        "Longitude(deg)": -33.39657924708261,
        "Mean Anomaly(deg)": -257.9333270240065,
        "RAAN(deg)": 319.99637829340355,
        "Satellite Name": "Constellation 1 1414",
        "Satellite Number": 1414,
        "Semi-Major Axis(m)": 7083131.272910544,
        "Time(s)": 64
    },
    {
        "Altitude(m)": 707024.8073801259,
        "Argument of Periapsis(deg)": 0.003896620405951365,
        "Eccentricity": 0.0,
        "Inclination(deg)": 45.0,
        "Latitude(deg)": 43.88585211730385,
        "Longitude(deg)": -33.318422131525985,
        "Mean Anomaly(deg)": -257.8726258837566,
        "RAAN(deg)": 319.996321704238,
        "Satellite Name": "Constellation 1 1414",
        "Satellite Number": 1414,
        "Semi-Major Axis(m)": 7083131.272910544,
        "Time(s)": 65
    },
    {
        "Altitude(m)": 707021.997892956,
        "Argument of Periapsis(deg)": 0.003956568412196771,
        "Eccentricity": 0.0,
        "Inclination(deg)": 45.0,
        "Latitude(deg)": 43.87329794486092,
        "Longitude(deg)": -33.240299457593544,
        "Mean Anomaly(deg)": -257.81192474350667,
        "RAAN(deg)": 319.9962651150724,
        "Satellite Name": "Constellation 1 1414",
        "Satellite Number": 1414,
        "Semi-Major Axis(m)": 7083131.272910544,
        "Time(s)": 66
    },
    {
        "Altitude(m)": 707019.1754604599,
        "Argument of Periapsis(deg)": 0.004016516418442176,
        "Eccentricity": 0.0,
        "Inclination(deg)": 45.0,
        "Latitude(deg)": 43.86068462242952,
        "Longitude(deg)": -33.16221152636912,
        "Mean Anomaly(deg)": -257.75122360325673,
        "RAAN(deg)": 319.9962085259068,
        "Satellite Name": "Constellation 1 1414",
        "Satellite Number": 1414,
        "Semi-Major Axis(m)": 7083131.272910544,
        "Time(s)": 67
    },
    {
        "Altitude(m)": 707016.340099297,
        "Argument of Periapsis(deg)": 0.004076464424687581,
        "Eccentricity": 0.0,
        "Inclination(deg)": 45.0,
        "Latitude(deg)": 43.848012200487894,
        "Longitude(deg)": -33.08415813411855,
        "Mean Anomaly(deg)": -257.69052246300686,
        "RAAN(deg)": 319.9961519367413,
        "Satellite Name": "Constellation 1 1414",
        "Satellite Number": 1414,
        "Semi-Major Axis(m)": 7083131.272910544,
        "Time(s)": 68
    },
    {
        "Altitude(m)": 707013.4918262204,
        "Argument of Periapsis(deg)": 0.004136412430932987,
        "Eccentricity": 0.0,
        "Inclination(deg)": 45.0,
        "Latitude(deg)": 43.835280729695924,
        "Longitude(deg)": -33.006139580871015,
        "Mean Anomaly(deg)": -257.629821322757,
        "RAAN(deg)": 319.9960953475757,
        "Satellite Name": "Constellation 1 1414",
        "Satellite Number": 1414,
        "Semi-Major Axis(m)": 7083131.272910544,
        "Time(s)": 69
    },
    {
        "Altitude(m)": 707010.6306580388,
        "Argument of Periapsis(deg)": 0.004196360437178394,
        "Eccentricity": 0.0,
        "Inclination(deg)": 45.0,
        "Latitude(deg)": 43.82249026089508,
        "Longitude(deg)": -32.928155998029354,
        "Mean Anomaly(deg)": -257.56912018250705,
        "RAAN(deg)": 319.9960387584101,
        "Satellite Name": "Constellation 1 1414",
        "Satellite Number": 1414,
        "Semi-Major Axis(m)": 7083131.272910544,
        "Time(s)": 70
    },
    {
        "Altitude(m)": 707007.7566116567,
        "Argument of Periapsis(deg)": 0.004256308443423799,
        "Eccentricity": 0.0,
        "Inclination(deg)": 45.0,
        "Latitude(deg)": 43.80964084510741,
        "Longitude(deg)": -32.85020751646666,
        "Mean Anomaly(deg)": -257.5084190422572,
        "RAAN(deg)": 319.99598216924454,
        "Satellite Name": "Constellation 1 1414",
        "Satellite Number": 1414,
        "Semi-Major Axis(m)": 7083131.272910544,
        "Time(s)": 71
    },
    {
        "Altitude(m)": 707004.8697040435,
        "Argument of Periapsis(deg)": 0.004316256449669204,
        "Eccentricity": 0.0,
        "Inclination(deg)": 45.0,
        "Latitude(deg)": 43.79673253353458,
        "Longitude(deg)": -32.77229426652475,
        "Mean Anomaly(deg)": -257.44771790200724,
        "RAAN(deg)": 319.99592558007896,
        "Satellite Name": "Constellation 1 1414",
        "Satellite Number": 1414,
        "Semi-Major Axis(m)": 7083131.272910544,
        "Time(s)": 72
    },
    {
        "Altitude(m)": 707001.9699522576,
        "Argument of Periapsis(deg)": 0.00437620445591461,
        "Eccentricity": 0.0,
        "Inclination(deg)": 45.0,
        "Latitude(deg)": 43.783765377556925,
        "Longitude(deg)": -32.69441637801295,
        "Mean Anomaly(deg)": -257.38701676175737,
        "RAAN(deg)": 319.99586899091344,
        "Satellite Name": "Constellation 1 1414",
        "Satellite Number": 1414,
        "Semi-Major Axis(m)": 7083131.272910544,
        "Time(s)": 73
    },
    {
        "Altitude(m)": 706999.0573734252,
        "Argument of Periapsis(deg)": 0.004436152462160016,
        "Eccentricity": 0.0,
        "Inclination(deg)": 45.0,
        "Latitude(deg)": 43.77073942873245,
        "Longitude(deg)": -32.616574148304444,
        "Mean Anomaly(deg)": -257.3263156215075,
        "RAAN(deg)": 319.99581240174786,
        "Satellite Name": "Constellation 1 1414",
        "Satellite Number": 1414,
        "Semi-Major Axis(m)": 7083131.272910544,
        "Time(s)": 74
    },
    {
        "Altitude(m)": 706996.1319847484,
        "Argument of Periapsis(deg)": 0.0044961004684054215,
        "Eccentricity": 0.0,
        "Inclination(deg)": 45.0,
        "Latitude(deg)": 43.75765473879676,
        "Longitude(deg)": -32.53876736994721,
        "Mean Anomaly(deg)": -257.26561448125756,
        "RAAN(deg)": 319.9957558125823,
        "Satellite Name": "Constellation 1 1414",
        "Satellite Number": 1414,
        "Semi-Major Axis(m)": 7083131.272910544,
        "Time(s)": 75
    }
]